IRIDIUM 921 [-]         
1 24873U 97034E   23355.55132938  .00019651  00000+0  69360-3 0  9999
2 24873  86.3863  15.7449 0004453 171.3944 188.7381 15.29109893447801
IRIDIUM 26 [-]          
1 24903U 97043A   23355.48702049  .00000737  00000+0  24659-3 0  9998
2 24903  86.3957 338.7478 0002468  90.3480 269.7999 14.36124677378686
IRIDIUM 22 [-]          
1 24907U 97043E   23355.47489089  .00000677  00000+0  23075-3 0  9991
2 24907  86.3961 341.8473 0002200  91.1098 269.0350 14.35027659378778
DUMMY MASS 1 [-]        
1 24925U 97048A   23355.62135541  .00000607  00000+0  66386-4 0  9990
2 24925  86.3347  26.4672 0004420 273.3341  86.7378 14.85969495424385
DUMMY MASS 2 [-]        
1 24926U 97048B   23355.56172335  .00000604  00000+0  66452-4 0  9997
2 24926  86.3347  28.0063 0005341 289.7089  70.3558 14.85730213424160
IRIDIUM 29 [-]          
1 24944U 97051A   23355.60402437  .00000655  00000+0  22104-3 0  9996
2 24944  86.3959  11.7465 0001989  95.6754 264.4670 14.35485494375261
IRIDIUM 33 [-]          
1 24946U 97051C   23355.53713074  .00000419  00000+0  14250-3 0  9993
2 24946  86.3875  11.0422 0009709  60.6808 299.5356 14.34203812374806
IRIDIUM 28 [-]          
1 24948U 97051E   23355.58633516  .00000612  00000+0  20245-3 0  9998
2 24948  86.3965   9.5826 0002614  87.9428 272.2068 14.36426750375782
